NORAD_CAT_ID,OBJECT_NAME,OBJECT_TYPE,EPOCH,MEAN_MOTION,ECCENTRICITY,INCLINATION,RA_OF_ASC_NODE,ARG_OF_PERICENTER,MEAN_ANOMALY,BSTAR,MEAN_MOTION_DOT,MEAN_MOTION_DDOT,TLE_LINE0,TLE_LINE1,TLE_LINE2,SEMIMAJOR_AXIS,PERIOD,APOGEE,PERIGEE,DECAYED
49432.0,STARLINK-3158,PAYLOAD,2022-06-09 12:24:10,15.08835675,0.0002227,53.2154,245.5853,32.3366,327.7762,-2.1452e-05,-6.3e-06,0.0,0 STARLINK-3158,1 49432U 21104AA  22160.51679178 -.00000630  00000-0 -21452-4 0  9994,2 49432  53.2154 245.5853 0002227  32.3366 327.7762 15.08835675 32076,6917.894,95.438,541.299,538.2180000000002,0.0
49432.0,STARLINK-3158,PAYLOAD,2022-06-10 05:53:25,15.08811882,0.0002178,53.2157,242.3143,31.3907,328.7215,0.00029532,4.411e-05,0.0,0 STARLINK-3158,1 49432U 21104AA  22161.24543661  .00004411  00000-0  29532-3 0  9997,2 49432  53.2157 242.3143 0002178  31.3907 328.7215 15.08811882 33261,6917.965999999999,95.439,541.3380000000002,538.325,0.0
49432.0,STARLINK-3158,PAYLOAD,2022-06-10 12:14:57,15.08837765,0.0002287,53.2156,241.1257,23.384,336.7256,7.963399999999999e-05,9.79e-06,0.0,0 STARLINK-3158,1 49432U 21104AA  22161.51039038  .00000979  00000-0  79634-4 0  9999,2 49432  53.2156 241.1257 0002287  23.3840 336.7256 15.08837765 33308,6917.887,95.438,541.3340000000002,538.17,0.0
49432.0,STARLINK-3158,PAYLOAD,2022-06-11 12:05:45,15.08831797,0.0002277,53.2156,236.6661,31.2019,328.9108,3.1873000000000005e-05,2.19e-06,0.0,0 STARLINK-3158,1 49432U 21104AA  22162.50399672  .00000219  00000-0  31873-4 0  9992,2 49432  53.2156 236.6661 0002277  31.2019 328.9108 15.08831797 33455,6917.905,95.438,541.346,538.195,0.0
49432.0,STARLINK-3158,PAYLOAD,2022-06-11 21:38:04,15.08833888,0.0002308,53.2155,234.882,32.0486,328.0646,5.7012e-05,6.19e-06,0.0,0 STARLINK-3158,1 49432U 21104AA  22162.90143643  .00000619  00000-0  57012-4 0  9998,2 49432  53.2155 234.8820 0002308  32.0486 328.0646 15.08833888 32431,6917.899,95.438,541.361,538.1669999999998,0.0
49432.0,STARLINK-3158,PAYLOAD,2022-06-12 03:59:36,15.08841977,0.0002219,53.2154,233.6924,31.7436,328.369,4.8714e-05,4.87e-06,0.0,0 STARLINK-3158,1 49432U 21104AA  22163.16639207  .00000487  00000-0  48714-4 0  9995,2 49432  53.2154 233.6924 0002219  31.7436 328.3690 15.08841977 33558,6917.874,95.437,541.274,538.2040000000002,0.0
49432.0,STARLINK-3158,PAYLOAD,2022-06-12 11:56:31,15.0884352,0.0002239,53.2154,232.2055,32.2555,327.8573,6.0863e-05,6.81e-06,0.0,0 STARLINK-3158,1 49432U 21104AA  22163.49759044  .00000681  00000-0  60863-4 0  9998,2 49432  53.2154 232.2055 0002239  32.2555 327.8573 15.08843520 32524,6917.87,95.437,541.284,538.186,0.0
49432.0,STARLINK-3158,PAYLOAD,2022-06-12 21:28:50,15.08846631,0.0002328,53.2153,230.4209,31.5199,328.5932,3.7649e-05,3.11e-06,0.0,0 STARLINK-3158,1 49432U 21104AA  22163.89502835  .00000311  00000-0  37649-4 0  9992,2 49432  53.2153 230.4209 0002328  31.5199 328.5932 15.08846631 32588,6917.86,95.437,541.336,538.115,0.0
49432.0,STARLINK-3158,PAYLOAD,2022-06-13 11:47:19,15.08838212,0.0002398,53.2153,227.7444,31.1958,328.9176,8.3131e-05,1.035e-05,0.0,0 STARLINK-3158,1 49432U 21104AA  22164.49119249  .00001035  00000-0  83131-4 0  9993,2 49432  53.2153 227.7444 0002398  31.1958 328.9176 15.08838212 33754,6917.886,95.438,541.41,538.092,0.0
49432.0,STARLINK-3158,PAYLOAD,2022-06-13 21:19:37,15.08845624,0.0002441,53.2154,225.96,31.8999,328.214,0.00011388,1.525e-05,0.0,0 STARLINK-3158,1 49432U 21104AA  22164.88862647  .00001525  00000-0  11388-3 0  9991,2 49432  53.2154 225.9600 0002441  31.8999 328.2140 15.08845624 32736,6917.863,95.437,541.4169999999998,538.04,0.0
49432.0,STARLINK-3158,PAYLOAD,2022-06-14 13:13:29,15.08842248,0.0002446,53.2154,222.9865,33.2308,326.8837,1.0267e-05,-1.25e-06,0.0,0 STARLINK-3158,1 49432U 21104AA  22165.55103122 -.00000125  00000-0  10267-4 0  9994,2 49432  53.2154 222.9865 0002446  33.2308 326.8837 15.08842248 33918,6917.874,95.437,541.431,538.0459999999998,0.0
49432.0,STARLINK-3158,PAYLOAD,2022-06-15 03:31:57,15.08835058,0.0002463,53.2155,220.3097,34.5073,325.6079,1.5355e-05,-4.4e-07,0.0,0 STARLINK-3158,1 49432U 21104AA  22166.14719554 -.00000044  00000-0  15355-4 0  9995,2 49432  53.2155 220.3097 0002463  34.5073 325.6079 15.08835058 34007,6917.895,95.438,541.464,538.057,0.0
49432.0,STARLINK-3158,PAYLOAD,2022-06-15 09:53:30,15.08831702,0.0002426,53.2155,219.1197,34.3701,325.7448,-7.4899e-06,-4.08e-06,0.0,0 STARLINK-3158,1 49432U 21104AA  22166.41215917 -.00000408  00000-0 -74899-5 0  9993,2 49432  53.2155 219.1197 0002426  34.3701 325.7448 15.08831702 32965,6917.906,95.438,541.4490000000002,538.092,0.0
49432.0,STARLINK-3158,PAYLOAD,2022-06-15 21:01:12,15.08838434,0.0002414,53.2157,217.0373,35.7235,324.3918,-2.1123e-05,-6.25e-06,0.0,0 STARLINK-3158,1 49432U 21104AA  22166.87583654 -.00000625  00000-0 -21123-4 0  9991,2 49432  53.2157 217.0373 0002414  35.7235 324.3918 15.08838434 33039,6917.885,95.438,541.42,538.08,0.0
49432.0,STARLINK-3158,PAYLOAD,2022-06-19 09:16:39,15.08831829,0.0002591,53.215,201.2777,30.5302,329.584,1.7785e-05,-5e-08,0.0,0 STARLINK-3158,1 49432U 21104AA  22170.38656793 -.00000005  00000-0  17785-4 0  9997,2 49432  53.2150 201.2777 0002591  30.5302 329.5840 15.08831829 33569,6917.905,95.438,541.563,537.9780000000002,0.0
49432.0,STARLINK-3158,PAYLOAD,2022-06-19 18:48:58,15.08833565,0.0002628999999999,53.215,199.4935,31.4803,328.6346,2.2831e-05,7.5e-07,0.0,0 STARLINK-3158,1 49432U 21104AA  22170.78400851  .00000075  00000-0  22831-4 0  9997,2 49432  53.2150 199.4935 0002629  31.4803 328.6346 15.08833565 33628,6917.9,95.438,541.5840000000002,537.946,0.0
49432.0,STARLINK-3158,PAYLOAD,2022-06-20 10:42:49,15.08833122,0.0002652,53.2148,196.5197,32.1716,327.9437,0.00011923,1.609e-05,0.0,0 STARLINK-3158,1 49432U 21104AA  22171.44640882  .00001609  00000-0  11923-3 0  9994,2 49432  53.2148 196.5197 0002652  32.1716 327.9437 15.08833122 34803,6917.901,95.438,541.601,537.932,0.0
49432.0,STARLINK-3158,PAYLOAD,2022-06-20 12:18:12,15.08833134,0.0002659,53.2149,196.2224,32.3984,327.7171,0.00011888,1.604e-05,0.0,0 STARLINK-3158,1 49432U 21104AA  22171.51264928  .00001604  00000-0  11888-3 0  9990,2 49432  53.2149 196.2224 0002659  32.3984 327.7171 15.08833134 33735,6917.901,95.438,541.606,537.927,0.0
49432.0,STARLINK-3158,PAYLOAD,2022-06-20 18:39:45,15.08836333,0.0002662,53.2149,195.033,32.8539,327.2618,0.00012019,1.625e-05,0.0,0 STARLINK-3158,1 49432U 21104AA  22171.77760811  .00001625  00000-0  12019-3 0  9990,2 49432  53.2149 195.0330 0002662  32.8539 327.2618 15.08836333 33774,6917.892,95.438,541.5980000000002,537.915,0.0
49432.0,STARLINK-3158,PAYLOAD,2022-06-21 10:33:36,15.08842246,0.0002701,53.2148,192.0591,34.358000000000004,325.7586,0.00011681,1.571e-05,0.0,0 STARLINK-3158,1 49432U 21104AA  22172.44000528  .00001571  00000-0  11681-3 0  9991,2 49432  53.2148 192.0591 0002701  34.3580 325.7586 15.08842246 34954,6917.874,95.437,541.607,537.87,0.0
49432.0,STARLINK-3158,PAYLOAD,2022-06-21 18:30:31,15.0884513,0.0002714,53.2149,190.5724,34.9548,325.1622,0.00011075,1.475e-05,0.0,0 STARLINK-3158,1 49432U 21104AA  22172.77120286  .00001475  00000-0  11075-3 0  9991,2 49432  53.2149 190.5724 0002714  34.9548 325.1622 15.08845130 33926,6917.865,95.437,541.607,537.852,0.0
49432.0,STARLINK-3158,PAYLOAD,2022-06-22 07:13:38,15.08832798,0.0002684,53.215,188.1936,36.3085,323.8089,-1.7701e-05,-5.700000000000001e-06,0.0,0 STARLINK-3158,1 49432U 21104AA  22173.30113479 -.00000570  00000-0 -17701-4 0  9997,2 49432  53.2150 188.1936 0002684  36.3085 323.8089 15.08832798 35081,6917.901999999999,95.438,541.624,537.911,0.0
49432.0,STARLINK-3158,PAYLOAD,2022-06-22 18:21:20,15.08834632,0.0002694,53.2151,186.1118,36.7749,323.3427,-3.0107e-05,-7.68e-06,0.0,0 STARLINK-3158,1 49432U 21104AA  22173.76481512 -.00000768  00000-0 -30107-4 0  9997,2 49432  53.2151 186.1118 0002694  36.7749 323.3427 15.08834632 34072,6917.897,95.438,541.625,537.898,0.0
49432.0,STARLINK-3158,PAYLOAD,2022-06-23 10:15:11,15.08838216,0.0002706,53.215,183.1375,38.1391,321.9792,-4.1105e-05,-9.43e-06,0.0,0 STARLINK-3158,1 49432U 21104AA  22174.42721403 -.00000943  00000-0 -41105-4 0  9992,2 49432  53.2150 183.1375 0002706  38.1391 321.9792 15.08838216 34178,6917.886,95.438,541.623,537.879,0.0
49432.0,STARLINK-3158,PAYLOAD,2022-06-23 18:12:06,15.08838396,0.0002726,53.215,181.6506,38.6207,321.498,-3.4076e-05,-8.31e-06,0.0,0 STARLINK-3158,1 49432U 21104AA  22174.75841400 -.00000831  00000-0 -34076-4 0  9993,2 49432  53.2150 181.6506 0002726  38.6207 321.4980 15.08838396 35309,6917.885,95.438,541.636,537.864,0.0
49432.0,STARLINK-3158,PAYLOAD,2022-06-24 10:05:58,15.08833066,0.0002833999999999,53.2147,178.6774,37.5102,322.6088,7.5749e-05,9.17e-06,0.0,0 STARLINK-3158,1 49432U 21104AA  22175.42081573  .00000917  00000-0  75749-4 0  9990,2 49432  53.2147 178.6774 0002834  37.5102 322.6088 15.08833066 34322,6917.901999999999,95.438,541.727,537.806,0.0
49432.0,STARLINK-3158,PAYLOAD,2022-06-25 03:35:12,15.08836607,0.0002878999999999,53.2147,175.4064,38.8161,321.3037,7.2112e-05,8.59e-06,0.0,0 STARLINK-3158,1 49432U 21104AA  22176.14945575  .00000859  00000-0  72112-4 0  9997,2 49432  53.2147 175.4064 0002879  38.8161 321.3037 15.08836607 35513,6917.891,95.438,541.747,537.764,0.0
49432.0,STARLINK-3158,PAYLOAD,2022-06-25 06:45:59,15.08837673,0.0002884,53.2147,174.8116,39.0819,321.0381,7.865e-05,9.63e-06,0.0,0 STARLINK-3158,1 49432U 21104AA  22176.28193513  .00000963  00000-0  78650-4 0  9998,2 49432  53.2147 174.8116 0002884  39.0819 321.0381 15.08837673 34458,6917.888000000001,95.438,541.748,537.757,0.0
49432.0,STARLINK-3158,PAYLOAD,2022-06-25 16:18:17,15.08840052,0.0002918,53.2148,173.0274,39.652,320.4685,7.3424e-05,8.8e-06,0.0,0 STARLINK-3158,1 49432U 21104AA  22176.67937377  .00000880  00000-0  73424-4 0  9997,2 49432  53.2148 173.0274 0002918  39.6520 320.4685 15.08840052 34510,6917.88,95.438,541.764,537.727,0.0
